ORBCOMM FM103 [+]       
1 40091U 14040F   24053.15427750  .00000901  00000+0  23890-3 0  9992
2 40091  47.0053 126.2209 0002789 243.7251 116.3347 14.56320771511005
ORBCOMM FM114 [+]       
1 41179U 15081A   24052.63971418  .00001068  00000+0  27622-3 0  9995
2 41179  47.0041  37.9533 0002546 294.8013  65.2607 14.56324782434238
ORBCOMM FM119 [-]       
1 41180U 15081B   24052.95159833  .00000935  00000+0  24652-3 0  9993
2 41180  47.0013 305.6758 0001492 347.1289  12.9557 14.56312546435531
ORBCOMM FM105 [-]       
1 41181U 15081C   24052.88960100  .00000397  00000+0  15998-3 0  9998
2 41181  47.0003 265.7313 0002091 314.2516  45.8192 14.44241661431158
ORBCOMM FM110 [+]       
1 41182U 15081D   24052.82258075  .00001276  00000+0  32264-3 0  9996
2 41182  47.0030  36.5057 0000764 135.8752 224.2194 14.56330123434133
ORBCOMM FM118 [+]       
1 41183U 15081E   24053.21150341  .00001235  00000+0  31340-3 0  9997
2 41183  47.0054  34.9641 0000904 132.0163 228.0799 14.56330816434370
ORBCOMM FM112 [+]       
1 41184U 15081F   24053.06671607  .00001224  00000+0  31085-3 0  9998
2 41184  46.9987 304.3693 0001467 331.3680  28.7124 14.56339031435543
ORBCOMM FM113 [+]       
1 41185U 15081G   24052.83796641  .00001186  00000+0  30265-3 0  9995
2 41185  47.0007 305.6990 0001010 346.8358  13.2500 14.56318138435441
